ALOS (DAICHI)           
1 28931U 06002A   26101.85939348  .00000922  00000+0  16234-3 0  9991
2 28931  98.1268  57.6628 0001432 114.6658 245.4697 14.69914623 78359
H-2A R/B                
1 28932U 06002B   26101.85790547  .00006994  00000+0  34353-3 0  9995
2 28932  98.2471 251.7662 0052592 128.3239 232.2737 15.17200334 99467
RESURS-DK 1             
1 29228U 06021A   26101.85959038  .00001424  00000+0  86722-4 0  9998
2 29228  69.9303 151.2126 0002326  15.2267 344.8969 15.12940795 92545
CZ-4B R/B               
1 29507U 06046C   26101.85219492  .00003636  00000+0  18349-3 0  9994
2 29507  97.5534 146.6677 0033962 150.3497 209.9671 15.17257330 65073
CZ-2C R/B               
1 31114U 07010B   26101.83750932  .00000105  00000+0  67234-4 0  9996
2 31114  98.4016 213.4606 0058735 196.7245 163.1997 14.20259038984421
COSMO-SKYMED 1          
1 31598U 07023A   26101.82537976  .00002317  00000+0  20765-3 0  9990
2 31598  97.8890 293.1298 0001668  89.2360 270.9052 14.96791802 19868
COSMOS 2428             
1 31792U 07029A   26101.80835021 -.00000102  00000+0 -28824-4 0  9999
2 31792  70.9407 133.8321 0009598 242.1144 117.9005 14.12948669968771
SL-16 R/B               
1 31793U 07029B   26101.74456405 -.00000206  00000+0 -81975-4 0  9999
2 31793  70.9729 102.9004 0002851 273.7702 261.4684 14.14842197970041
KORONAS-FOTON           
1 33504U 09003A   26101.82158438  .00011504  00000+0  24860-3 0  9999
2 33504  82.4291 241.4051 0010997  41.0083 319.1989 15.44291369950853
CZ-2C R/B               
1 37731U 11030B   26101.84076250  .00000813  00000+0  10883-3 0  9992
2 37731  97.8597  58.4558 0051072 241.7674 147.8007 14.81334933795006
H-2A R/B                
1 38341U 12025E   26101.85280826  .00002224  00000+0  20391-3 0  9995
2 38341  98.4770  71.5717 0043769 202.4152 157.5155 14.95391285753178
SHIJIAN-16 (SJ-16)      
1 39358U 13057A   26101.87890444  .00000935  00000+0  93871-4 0  9996
2 39358  74.9704 122.2546 0015631  26.7570 333.4421 14.92455035676452
SL-4 R/B                
1 39679U 14021B   26101.46913433  .00011459  00000+0  24806-3 0  9997
2 39679  51.6070 177.2235 0093578 222.7629 136.6049 15.40395486661326
ALOS-2                  
1 39766U 14029A   26101.45314147  .00000189  00000+0  32249-4 0  9997
2 39766  97.9190 199.5736 0001834  90.5580 269.5842 14.79470532641718
YAOGAN-29               
1 41038U 15069A   26101.85541868  .00000458  00000+0  62971-4 0  9997
2 41038  98.0102 130.3673 0000701 158.6568 201.4675 14.83033560560793
ASTRO-H (HITOMI)        
1 41337U 16012A   26101.81523302  .00002092  00000+0  11912-3 0  9991
2 41337  30.9982 142.7433 0009626 304.3185  55.6541 15.10217363557240
HXMT (HUIYAN)           
1 42758U 17034A   26101.75020236  .00004334  00000+0  21910-3 0  9995
2 42758  43.0135 192.8081 0030300  83.4435 276.9861 15.17909496487566
