[{"OBJECT_NAME":"ALOS (DAICHI)","OBJECT_ID":"2006-002A","EPOCH":"2026-04-11T20:37:31.596672","MEAN_MOTION":14.69914623,"ECCENTRICITY":0.0001432,"INCLINATION":98.1268,"RA_OF_ASC_NODE":57.6628,"ARG_OF_PERICENTER":114.6658,"MEAN_ANOMALY":245.4697,"EPHEMERIS_TYPE":0,"CLASSIFICATION_TYPE":"U","NORAD_CAT_ID":28931,"ELEMENT_SET_NO":999,"REV_AT_EPOCH":7835,"BSTAR":0.00016234,"MEAN_MOTION_DOT":9.22e-6,"MEAN_MOTION_DDOT":0},{"OBJECT_NAME":"H-2A R/B","OBJECT_ID":"2006-002B","EPOCH":"2026-04-11T20:35:23.032608","MEAN_MOTION":15.17200334,"ECCENTRICITY":0.0052592,"INCLINATION":98.2471,"RA_OF_ASC_NODE":251.7662,"ARG_OF_PERICENTER":128.3239,"MEAN_ANOMALY":232.2737,"EPHEMERIS_TYPE":0,"CLASSIFICATION_TYPE":"U","NORAD_CAT_ID":28932,"ELEMENT_SET_NO":999,"REV_AT_EPOCH":9946,"BSTAR":0.00034353,"MEAN_MOTION_DOT":6.994e-5,"MEAN_MOTION_DDOT":0},{"OBJECT_NAME":"RESURS-DK 1","OBJECT_ID":"2006-021A","EPOCH":"2026-04-11T20:37:48.608832","MEAN_MOTION":15.12940795,"ECCENTRICITY":0.0002326,"INCLINATION":69.9303,"RA_OF_ASC_NODE":151.2126,"ARG_OF_PERICENTER":15.2267,"MEAN_ANOMALY":344.8969,"EPHEMERIS_TYPE":0,"CLASSIFICATION_TYPE":"U","NORAD_CAT_ID":29228,"ELEMENT_SET_NO":999,"REV_AT_EPOCH":9254,"BSTAR":8.6722e-5,"MEAN_MOTION_DOT":1.424e-5,"MEAN_MOTION_DDOT":0},{"OBJECT_NAME":"CZ-4B R/B","OBJECT_ID":"2006-046C","EPOCH":"2026-04-11T20:27:09.641088","MEAN_MOTION":15.1725733,"ECCENTRICITY":0.0033962,"INCLINATION":97.5534,"RA_OF_ASC_NODE":146.6677,"ARG_OF_PERICENTER":150.3497,"MEAN_ANOMALY":209.9671,"EPHEMERIS_TYPE":0,"CLASSIFICATION_TYPE":"U","NORAD_CAT_ID":29507,"ELEMENT_SET_NO":999,"REV_AT_EPOCH":6507,"BSTAR":0.00018349,"MEAN_MOTION_DOT":3.636e-5,"MEAN_MOTION_DDOT":0},{"OBJECT_NAME":"CZ-2C R/B","OBJECT_ID":"2007-010B","EPOCH":"2026-04-11T20:06:00.805248","MEAN_MOTION":14.20259038,"ECCENTRICITY":0.0058735,"INCLINATION":98.4016,"RA_OF_ASC_NODE":213.4606,"ARG_OF_PERICENTER":196.7245,"MEAN_ANOMALY":163.1997,"EPHEMERIS_TYPE":0,"CLASSIFICATION_TYPE":"U","NORAD_CAT_ID":31114,"ELEMENT_SET_NO":999,"REV_AT_EPOCH":98442,"BSTAR":6.7234e-5,"MEAN_MOTION_DOT":1.05e-6,"MEAN_MOTION_DDOT":0},{"OBJECT_NAME":"COSMO-SKYMED 1","OBJECT_ID":"2007-023A","EPOCH":"2026-04-11T19:48:32.811264","MEAN_MOTION":14.96791802,"ECCENTRICITY":0.0001668,"INCLINATION":97.889,"RA_OF_ASC_NODE":293.1298,"ARG_OF_PERICENTER":89.236,"MEAN_ANOMALY":270.9052,"EPHEMERIS_TYPE":0,"CLASSIFICATION_TYPE":"U","NORAD_CAT_ID":31598,"ELEMENT_SET_NO":999,"REV_AT_EPOCH":1986,"BSTAR":0.00020765,"MEAN_MOTION_DOT":2.317e-5,"MEAN_MOTION_DDOT":0},{"OBJECT_NAME":"COSMOS 2428","OBJECT_ID":"2007-029A","EPOCH":"2026-04-11T19:24:01.458144","MEAN_MOTION":14.12948669,"ECCENTRICITY":0.0009598,"INCLINATION":70.9407,"RA_OF_ASC_NODE":133.8321,"ARG_OF_PERICENTER":242.1144,"MEAN_ANOMALY":117.9005,"EPHEMERIS_TYPE":0,"CLASSIFICATION_TYPE":"U","NORAD_CAT_ID":31792,"ELEMENT_SET_NO":999,"REV_AT_EPOCH":96877,"BSTAR":-2.8824e-5,"MEAN_MOTION_DOT":-1.02e-6,"MEAN_MOTION_DDOT":0},{"OBJECT_NAME":"SL-16 R/B","OBJECT_ID":"2007-029B","EPOCH":"2026-04-11T17:52:10.333920","MEAN_MOTION":14.14842197,"ECCENTRICITY":0.0002851,"INCLINATION":70.9729,"RA_OF_ASC_NODE":102.9004,"ARG_OF_PERICENTER":273.7702,"MEAN_ANOMALY":261.4684,"EPHEMERIS_TYPE":0,"CLASSIFICATION_TYPE":"U","NORAD_CAT_ID":31793,"ELEMENT_SET_NO":999,"REV_AT_EPOCH":97004,"BSTAR":-8.1975e-5,"MEAN_MOTION_DOT":-2.06e-6,"MEAN_MOTION_DDOT":0},{"OBJECT_NAME":"KORONAS-FOTON","OBJECT_ID":"2009-003A","EPOCH":"2026-04-11T19:43:04.890432","MEAN_MOTION":15.44291369,"ECCENTRICITY":0.0010997,"INCLINATION":82.4291,"RA_OF_ASC_NODE":241.4051,"ARG_OF_PERICENTER":41.0083,"MEAN_ANOMALY":319.1989,"EPHEMERIS_TYPE":0,"CLASSIFICATION_TYPE":"U","NORAD_CAT_ID":33504,"ELEMENT_SET_NO":999,"REV_AT_EPOCH":95085,"BSTAR":0.0002486,"MEAN_MOTION_DOT":0.00011504,"MEAN_MOTION_DDOT":0},{"OBJECT_NAME":"CZ-2C R/B","OBJECT_ID":"2011-030B","EPOCH":"2026-04-11T20:10:41.880000","MEAN_MOTION":14.81334933,"ECCENTRICITY":0.0051072,"INCLINATION":97.8597,"RA_OF_ASC_NODE":58.4558,"ARG_OF_PERICENTER":241.7674,"MEAN_ANOMALY":147.8007,"EPHEMERIS_TYPE":0,"CLASSIFICATION_TYPE":"U","NORAD_CAT_ID":37731,"ELEMENT_SET_NO":999,"REV_AT_EPOCH":79500,"BSTAR":0.00010883,"MEAN_MOTION_DOT":8.13e-6,"MEAN_MOTION_DDOT":0},{"OBJECT_NAME":"H-2A R/B","OBJECT_ID":"2012-025E","EPOCH":"2026-04-11T20:28:02.633664","MEAN_MOTION":14.95391285,"ECCENTRICITY":0.0043769,"INCLINATION":98.477,"RA_OF_ASC_NODE":71.5717,"ARG_OF_PERICENTER":202.4152,"MEAN_ANOMALY":157.5155,"EPHEMERIS_TYPE":0,"CLASSIFICATION_TYPE":"U","NORAD_CAT_ID":38341,"ELEMENT_SET_NO":999,"REV_AT_EPOCH":75317,"BSTAR":0.00020391,"MEAN_MOTION_DOT":2.224e-5,"MEAN_MOTION_DDOT":0},{"OBJECT_NAME":"SHIJIAN-16 (SJ-16)","OBJECT_ID":"2013-057A","EPOCH":"2026-04-11T21:05:37.343616","MEAN_MOTION":14.92455035,"ECCENTRICITY":0.0015631,"INCLINATION":74.9704,"RA_OF_ASC_NODE":122.2546,"ARG_OF_PERICENTER":26.757,"MEAN_ANOMALY":333.4421,"EPHEMERIS_TYPE":0,"CLASSIFICATION_TYPE":"U","NORAD_CAT_ID":39358,"ELEMENT_SET_NO":999,"REV_AT_EPOCH":67645,"BSTAR":9.3871e-5,"MEAN_MOTION_DOT":9.35e-6,"MEAN_MOTION_DDOT":0},{"OBJECT_NAME":"SL-4 R/B","OBJECT_ID":"2014-021B","EPOCH":"2026-04-11T11:15:33.206112","MEAN_MOTION":15.40395486,"ECCENTRICITY":0.0093578,"INCLINATION":51.607,"RA_OF_ASC_NODE":177.2235,"ARG_OF_PERICENTER":222.7629,"MEAN_ANOMALY":136.6049,"EPHEMERIS_TYPE":0,"CLASSIFICATION_TYPE":"U","NORAD_CAT_ID":39679,"ELEMENT_SET_NO":999,"REV_AT_EPOCH":66132,"BSTAR":0.00024806,"MEAN_MOTION_DOT":0.00011459,"MEAN_MOTION_DDOT":0},{"OBJECT_NAME":"ALOS-2","OBJECT_ID":"2014-029A","EPOCH":"2026-04-11T10:52:31.423008","MEAN_MOTION":14.79470532,"ECCENTRICITY":0.0001834,"INCLINATION":97.919,"RA_OF_ASC_NODE":199.5736,"ARG_OF_PERICENTER":90.558,"MEAN_ANOMALY":269.5842,"EPHEMERIS_TYPE":0,"CLASSIFICATION_TYPE":"U","NORAD_CAT_ID":39766,"ELEMENT_SET_NO":999,"REV_AT_EPOCH":64171,"BSTAR":3.2249e-5,"MEAN_MOTION_DOT":1.89e-6,"MEAN_MOTION_DDOT":0},{"OBJECT_NAME":"YAOGAN-29","OBJECT_ID":"2015-069A","EPOCH":"2026-04-11T20:31:48.173952","MEAN_MOTION":14.8303356,"ECCENTRICITY":7.01e-5,"INCLINATION":98.0102,"RA_OF_ASC_NODE":130.3673,"ARG_OF_PERICENTER":158.6568,"MEAN_ANOMALY":201.4675,"EPHEMERIS_TYPE":0,"CLASSIFICATION_TYPE":"U","NORAD_CAT_ID":41038,"ELEMENT_SET_NO":999,"REV_AT_EPOCH":56079,"BSTAR":6.2971e-5,"MEAN_MOTION_DOT":4.58e-6,"MEAN_MOTION_DDOT":0},{"OBJECT_NAME":"ASTRO-H (HITOMI)","OBJECT_ID":"2016-012A","EPOCH":"2026-04-11T19:33:56.132928","MEAN_MOTION":15.10217363,"ECCENTRICITY":0.0009626,"INCLINATION":30.9982,"RA_OF_ASC_NODE":142.7433,"ARG_OF_PERICENTER":304.3185,"MEAN_ANOMALY":55.6541,"EPHEMERIS_TYPE":0,"CLASSIFICATION_TYPE":"U","NORAD_CAT_ID":41337,"ELEMENT_SET_NO":999,"REV_AT_EPOCH":55724,"BSTAR":0.00011912,"MEAN_MOTION_DOT":2.092e-5,"MEAN_MOTION_DDOT":0},{"OBJECT_NAME":"HXMT (HUIYAN)","OBJECT_ID":"2017-034A","EPOCH":"2026-04-11T18:00:17.483904","MEAN_MOTION":15.17909496,"ECCENTRICITY":0.00303,"INCLINATION":43.0135,"RA_OF_ASC_NODE":192.8081,"ARG_OF_PERICENTER":83.4435,"MEAN_ANOMALY":276.9861,"EPHEMERIS_TYPE":0,"CLASSIFICATION_TYPE":"U","NORAD_CAT_ID":42758,"ELEMENT_SET_NO":999,"REV_AT_EPOCH":48756,"BSTAR":0.0002191,"MEAN_MOTION_DOT":4.334e-5,"MEAN_MOTION_DDOT":0}]
